CTC1_L_00047016-03
1 87214U 25924QY  26070.40831019  .00000000  00000+0  00000-0 0  9994
2 87214  55.0000 180.0000 0000000   0.0000   0.0000 15.08756051    12
CTC1_L_00047016-04
1 87215U 22973HX  26070.40831019  .00000000  00000+0  00000-0 0  9996
2 87215  55.0000 180.0000 0000000   0.0000  90.0000 15.08756051    12
CTC1_L_00047017-01
1 87216U 25409BU  26070.40831019  .00000000  00000+0  00000-0 0  9994
2 87216  55.0000 192.0000 0000000   0.0000 192.0000 15.08756051    19
CTC1_L_00047017-02
1 87217U 23134U   26070.40831019  .00000000  00000+0  00000-0 0  9998
2 87217  55.0000 192.0000 0000000   0.0000 282.0000 15.08756051    10
CTC1_L_00047017-03
1 87218U 22652MK  26070.40831019  .00000000  00000+0  00000-0 0  9993
2 87218  55.0000 192.0000 0000000   0.0000  12.0000 15.08756051    12
CTC1_L_00047017-04
1 87219U 26448IY  26070.40831019  .00000000  00000+0  00000-0 0  9991
2 87219  55.0000 192.0000 0000000   0.0000 102.0000 15.08756051    13
CTC1_L_00047018-01
1 87220U 26081TK  26070.40831019  .00000000  00000+0  00000-0 0  9996
2 87220  55.0000 204.0000 0000000   0.0000 204.0000 15.08756051    12
CTC1_L_00047018-02
1 87221U 23026GW  26070.40831019  .00000000  00000+0  00000-0 0  9993
2 87221  55.0000 204.0000 0000000   0.0000 294.0000 15.08756051    12
CTC1_L_00047018-03
1 87222U 22396EB  26070.40831019  .00000000  00000+0  00000-0 0  9993
2 87222  55.0000 204.0000 0000000   0.0000  24.0000 15.08756051    14
CTC1_L_00047018-04
1 87223U 26346DE  26070.40831019  .00000000  00000+0  00000-0 0  9993
2 87223  55.0000 204.0000 0000000   0.0000 114.0000 15.08756051    15
CTC1_L_00047019-01
1 87224U 25876RI  26070.40831019  .00000000  00000+0  00000-0 0  9991
2 87224  55.0000 216.0000 0000000   0.0000 216.0000 15.08756051    12
CTC1_L_00047019-02
1 87225U 23088MH  26070.40831019  .00000000  00000+0  00000-0 0  9995
2 87225  55.0000 216.0000 0000000   0.0000 306.0000 15.08756051    13
CTC1_L_00047019-03
1 87226U 23203PK  26070.40831019  .00000000  00000+0  00000-0 0  9995
2 87226  55.0000 216.0000 0000000   0.0000  36.0000 15.08756051    14
CTC1_L_00047019-04
1 87227U 25411QH  26070.40831019  .00000000  00000+0  00000-0 0  9999
2 87227  55.0000 216.0000 0000000   0.0000 126.0000 15.08756051    15
CTC1_L_00047020-01
1 87228U 25764TO  26070.40831019  .00000000  00000+0  00000-0 0  9991
2 87228  55.0000 228.0000 0000000   0.0000 228.0000 15.08756051    12
CTC1_L_00047020-02
1 87229U 22898KY  26070.40831019  .00000000  00000+0  00000-0 0  9997
2 87229  55.0000 228.0000 0000000   0.0000 318.0000 15.08756051    13
CTC1_L_00047020-03
1 87230U 22254KG  26070.40831019  .00000000  00000+0  00000-0 0  9995
2 87230  55.0000 228.0000 0000000   0.0000  48.0000 15.08756051    15
CTC1_L_00047020-04
1 87231U 26965MG  26070.40831019  .00000000  00000+0  00000-0 0  9999
2 87231  55.0000 228.0000 0000000   0.0000 138.0000 15.08756051    16
CTC1_L_00047021-01
1 87232U 24419XX  26070.40831019  .00000000  00000+0  00000-0 0  9992
2 87232  55.0000 240.0000 0000000   0.0000 240.0000 15.08756051    15
CTC1_L_00047021-02
1 87233U 26529GQ  26070.40831019  .00000000  00000+0  00000-0 0  9997
2 87233  55.0000 240.0000 0000000   0.0000 330.0000 15.08756051    16
CTC1_L_00047021-03
1 87234U 25978BZ  26070.40831019  .00000000  00000+0  00000-0 0  9995
2 87234  55.0000 240.0000 0000000   0.0000  60.0000 15.08756051    17
CTC1_L_00047021-04
1 87235U 23536RE  26070.40831019  .00000000  00000+0  00000-0 0  9994
2 87235  55.0000 240.0000 0000000   0.0000 150.0000 15.08756051    18
CTC1_L_00047022-01
1 87236U 25589BH  26070.40831019  .00000000  00000+0  00000-0 0  9995
2 87236  55.0000 252.0000 0000000   0.0000 252.0000 15.08756051    15
CTC1_L_00047022-02
1 87237U 24899YN  26070.40831019  .00000000  00000+0  00000-0 0  9999
2 87237  55.0000 252.0000 0000000   0.0000 342.0000 15.08756051    16
CTC1_L_00047022-03
1 87238U 26735ER  26070.40831019  .00000000  00000+0  00000-0 0  9991
2 87238  55.0000 252.0000 0000000   0.0000  72.0000 15.08756051    17
CTC1_L_00047022-04
1 87239U 22973SS  26070.40831019  .00000000  00000+0  00000-0 0  9992
2 87239  55.0000 252.0000 0000000   0.0000 162.0000 15.08756051    18
CTC1_L_00047023-01
1 87240U 24587DS  26070.40831019  .00000000  00000+0  00000-0 0  9997
2 87240  55.0000 264.0000 0000000   0.0000 264.0000 15.08756051    16
CTC1_L_00047023-02
1 87241U 26796QT  26070.40831019  .00000000  00000+0  00000-0 0  9992
2 87241  55.0000 264.0000 0000000   0.0000 354.0000 15.08756051    17
CTC1_L_00047023-03
1 87242U 26568JY  26070.40831019  .00000000  00000+0  00000-0 0  9990
2 87242  55.0000 264.0000 0000000   0.0000  84.0000 15.08756051    18
CTC1_L_00047023-04
1 87243U 24590CN  26070.40831019  .00000000  00000+0  00000-0 0  9994
2 87243  55.0000 264.0000 0000000   0.0000 174.0000 15.08756051    19
CTC1_L_00047024-01
1 87244U 25697TA  26070.40831019  .00000000  00000+0  00000-0 0  9994
2 87244  55.0000 276.0000 0000000   0.0000 276.0000 15.08756051    16
CTC1_L_00047024-02
1 87245U 25973FQ  26070.40831019  .00000000  00000+0  00000-0 0  9992
2 87245  55.0000 276.0000 0000000   0.0000   6.0000 15.08756051    18
CTC1_L_00047024-03
1 87246U 22988YR  26070.40831019  .00000000  00000+0  00000-0 0  9996
2 87246  55.0000 276.0000 0000000   0.0000  96.0000 15.08756051    18
CTC1_L_00047024-04
1 87247U 22536YD  26070.40831019  .00000000  00000+0  00000-0 0  9996
2 87247  55.0000 276.0000 0000000   0.0000 186.0000 15.08756051    19
CTC1_L_00047025-01
1 87248U 22099VX  26070.40831019  .00000000  00000+0  00000-0 0  9991
2 87248  55.0000 288.0000 0000000   0.0000 288.0000 15.08756051    16
CTC1_L_00047025-02
1 87249U 23884YL  26070.40831019  .00000000  00000+0  00000-0 0  9995
2 87249  55.0000 288.0000 0000000   0.0000  18.0000 15.08756051    18
CTC1_L_00047025-03
1 87250U 25153BW  26070.40831019  .00000000  00000+0  00000-0 0  9998
2 87250  55.0000 288.0000 0000000   0.0000 108.0000 15.08756051    10
CTC1_L_00047025-04
1 87251U 26091GY  26070.40831019  .00000000  00000+0  00000-0 0  9991
2 87251  55.0000 288.0000 0000000   0.0000 198.0000 15.08756051    10
CTC1_L_00047026-01
1 87252U 26904WY  26070.40831019  .00000000  00000+0  00000-0 0  9995
2 87252  55.0000 300.0000 0000000   0.0000 300.0000 15.08756051    11
CTC1_L_00047026-02
1 87253U 26911YM  26070.40831019  .00000000  00000+0  00000-0 0  9994
2 87253  55.0000 300.0000 0000000   0.0000  30.0000 15.08756051    12
CTC1_L_00047026-03
1 87254U 23586GB  26070.40831019  .00000000  00000+0  00000-0 0  9990
2 87254  55.0000 300.0000 0000000   0.0000 120.0000 15.08756051    13
CTC1_L_00047026-04
1 87255U 25461L   26070.40831019  .00000000  00000+0  00000-0 0  9995
2 87255  55.0000 300.0000 0000000   0.0000 210.0000 15.08756051    14
CTC1_L_00047027-01
1 87256U 25610XU  26070.40831019  .00000000  00000+0  00000-0 0  9992
2 87256  55.0000 312.0000 0000000   0.0000 312.0000 15.08756051    11
CTC1_L_00047027-02
1 87257U 22423JY  26070.40831019  .00000000  00000+0  00000-0 0  9992
2 87257  55.0000 312.0000 0000000   0.0000  42.0000 15.08756051    12
CTC1_L_00047027-03
1 87258U 26233GH  26070.40831019  .00000000  00000+0  00000-0 0  9996
2 87258  55.0000 312.0000 0000000   0.0000 132.0000 15.08756051    13
CTC1_L_00047027-04
1 87259U 24684QJ  26070.40831019  .00000000  00000+0  00000-0 0  9995
2 87259  55.0000 312.0000 0000000   0.0000 222.0000 15.08756051    14
CTC1_L_00047028-01
1 87260U 22252XJ  26070.40831019  .00000000  00000+0  00000-0 0  9996
2 87260  55.0000 324.0000 0000000   0.0000 324.0000 15.08756051    12
CTC1_L_00047028-02
1 87261U 25467L   26070.40831019  .00000000  00000+0  00000-0 0  9998
2 87261  55.0000 324.0000 0000000   0.0000  54.0000 15.08756051    13
CTC1_L_00047028-03
1 87262U 22754NC  26070.40831019  .00000000  00000+0  00000-0 0  9995
2 87262  55.0000 324.0000 0000000   0.0000 144.0000 15.08756051    14
CTC1_L_00047028-04
1 87263U 25265PC  26070.40831019  .00000000  00000+0  00000-0 0  9996
2 87263  55.0000 324.0000 0000000   0.0000 234.0000 15.08756051    15
CTC1_L_00047029-01
1 87264U 26960AI  26070.40831019  .00000000  00000+0  00000-0 0  9990
2 87264  55.0000 336.0000 0000000   0.0000 336.0000 15.08756051    12
CTC1_L_00047029-02
1 87265U 23844RY  26070.40831019  .00000000  00000+0  00000-0 0  9999
2 87265  55.0000 336.0000 0000000   0.0000  66.0000 15.08756051    13
CTC1_L_00047029-03
1 87266U 23575ED  26070.40831019  .00000000  00000+0  00000-0 0  9991
2 87266  55.0000 336.0000 0000000   0.0000 156.0000 15.08756051    14
CTC1_L_00047029-04
1 87267U 23175ZV  26070.40831019  .00000000  00000+0  00000-0 0  9998
2 87267  55.0000 336.0000 0000000   0.0000 246.0000 15.08756051    15
CTC1_L_00047030-01
1 87268U 23530YB  26070.40831019  .00000000  00000+0  00000-0 0  9994
2 87268  55.0000 348.0000 0000000   0.0000 348.0000 15.08756051    12
CTC1_L_00047030-02
1 87269U 23471SP  26070.40831019  .00000000  00000+0  00000-0 0  9999
2 87269  55.0000 348.0000 0000000   0.0000  78.0000 15.08756051    13
CTC1_L_00047030-03
1 87270U 23613NW  26070.40831019  .00000000  00000+0  00000-0 0  9999
2 87270  55.0000 348.0000 0000000   0.0000 168.0000 15.08756051    15
CTC1_L_00047030-04
1 87271U 26703KG  26070.40831019  .00000000  00000+0  00000-0 0  9993
2 87271  55.0000 348.0000 0000000   0.0000 258.0000 15.08756051    16
